QZS-1R                  
1 49336U 21096A   24285.79052855 -.00000183  00000+0  00000+0 0  9996
2 49336  36.1851  88.7633 0745964 270.1156  82.1781  1.00282093 10859
